{
  "type": "FeatureCollection",
  "features": [
    {
      "type": "Feature",
      "properties": {
        "norad_id": 66582,
        "name": "STARLINK-35746",
        "group": "last-30-days",
        "lat": -24.994499056832456,
        "lon": -88.95635790432014,
        "alt_km": 399.8936690288965,
        "timestamp": "2025-12-22T23:36:19.408722+00:00",
        "meta_object_name": "STARLINK-35746",
        "meta_object_id": "2025-268AB",
        "meta_epoch": "2025-12-22T14:00:01.999872",
        "meta_mean_motion": 15.56369185,
        "meta_eccentricity": 0.00014578,
        "meta_inclination": 43.0006,
        "meta_ra_of_asc_node": 63.3872,
        "meta_arg_of_pericenter": 271.0249,
        "meta_mean_anomaly": 222.1971,
        "meta_ephemeris_type": 0,
        "meta_classification_type": "U",
        "meta_norad_cat_id": 66582,
        "meta_element_set_no": 999,
        "meta_rev_at_epoch": 609,
        "meta_bstar": 0.00047041484,
        "meta_mean_motion_dot": 0.0003385,
        "meta_mean_motion_ddot": 0,
        "tle_line1": "1 66582U 25268AB  25356.58335648  .00033850  00000+0  47041-3 0  9990",
        "tle_line2": "2 66582  43.0006  63.3872 0001457 271.0249 222.1971 15.56369185  6091"
      },
      "geometry": {
        "type": "Point",
        "coordinates": [
          -88.95635790432014,
          -24.994499056832456
        ]
      }
    },
    {
      "type": "Feature",
      "properties": {
        "norad_id": 66583,
        "name": "STARLINK-35941",
        "group": "last-30-days",
        "lat": -26.11634432217779,
        "lon": -87.23755053182488,
        "alt_km": 400.0662893305007,
        "timestamp": "2025-12-22T23:36:19.408733+00:00",
        "meta_object_name": "STARLINK-35941",
        "meta_object_id": "2025-268AC",
        "meta_epoch": "2025-12-22T14:00:01.999872",
        "meta_mean_motion": 15.56365232,
        "meta_eccentricity": 0.00016278,
        "meta_inclination": 43.0006,
        "meta_ra_of_asc_node": 63.3824,
        "meta_arg_of_pericenter": 281.5206,
        "meta_mean_anomaly": 213.6298,
        "meta_ephemeris_type": 0,
        "meta_classification_type": "U",
        "meta_norad_cat_id": 66583,
        "meta_element_set_no": 999,
        "meta_rev_at_epoch": 609,
        "meta_bstar": 0.00045767793,
        "meta_mean_motion_dot": 0.00032915,
        "meta_mean_motion_ddot": 0,
        "tle_line1": "1 66583U 25268AC  25356.58335648  .00032915  00000+0  45768-3 0  9996",
        "tle_line2": "2 66583  43.0006  63.3824 0001627 281.5206 213.6298 15.56365232  6093"
      },
      "geometry": {
        "type": "Point",
        "coordinates": [
          -87.23755053182488,
          -26.11634432217779
        ]
      }
    },
    {
      "type": "Feature",
      "properties": {
        "norad_id": 66584,
        "name": "STARLINK-35939",
        "group": "last-30-days",
        "lat": -27.21586808362726,
        "lon": -85.48799769248537,
        "alt_km": 400.11097798976425,
        "timestamp": "2025-12-22T23:36:19.408743+00:00",
        "meta_object_name": "STARLINK-35939",
        "meta_object_id": "2025-268AD",
        "meta_epoch": "2025-12-22T14:00:01.999872",
        "meta_mean_motion": 15.56365737,
        "meta_eccentricity": 0.00016162,
        "meta_inclination": 43.0006,
        "meta_ra_of_asc_node": 63.3776,
        "meta_arg_of_pericenter": 281.293,
        "meta_mean_anomaly": 215.7732,
        "meta_ephemeris_type": 0,
        "meta_classification_type": "U",
        "meta_norad_cat_id": 66584,
        "meta_element_set_no": 999,
        "meta_rev_at_epoch": 599,
        "meta_bstar": 0.00045188786,
        "meta_mean_motion_dot": 0.00032492,
        "meta_mean_motion_ddot": 0,
        "tle_line1": "1 66584U 25268AD  25356.58335648  .00032492  00000+0  45189-3 0  9994",
        "tle_line2": "2 66584  43.0006  63.3776 0001616 281.2930 215.7732 15.56365737  5993"
      },
      "geometry": {
        "type": "Point",
        "coordinates": [
          -85.48799769248537,
          -27.21586808362726
        ]
      }
    },
    {
      "type": "Feature",
      "properties": {
        "norad_id": 66585,
        "name": "STARLINK-35963",
        "group": "last-30-days",
        "lat": -15.415311013785715,
        "lon": -101.72546010411762,
        "alt_km": 420.6607749408113,
        "timestamp": "2025-12-22T23:36:19.408753+00:00",
        "meta_object_name": "STARLINK-35963",
        "meta_object_id": "2025-268AE",
        "meta_epoch": "2025-12-22T14:00:01.999872",
        "meta_mean_motion": 15.50929664,
        "meta_eccentricity": 0.00012369,
        "meta_inclination": 43.0001,
        "meta_ra_of_asc_node": 63.4026,
        "meta_arg_of_pericenter": 292.6637,
        "meta_mean_anomaly": 194.357,
        "meta_ephemeris_type": 0,
        "meta_classification_type": "U",
        "meta_norad_cat_id": 66585,
        "meta_element_set_no": 999,
        "meta_rev_at_epoch": 599,
        "meta_bstar": -0.03807568,
        "meta_mean_motion_dot": -0.02018455,
        "meta_mean_motion_ddot": 0,
        "tle_line1": "1 66585U 25268AE  25356.58335648 -.02018455  00000+0 -38076-1 0  9997",
        "tle_line2": "2 66585  43.0001  63.4026 0001236 292.6637 194.3570 15.50929664  5997"
      },
      "geometry": {
        "type": "Point",
        "coordinates": [
          -101.72546010411762,
          -15.415311013785715
        ]
      }
    },
    {
      "type": "Feature",
      "properties": {
        "norad_id": 66586,
        "name": "TJS-21",
        "group": "last-30-days",
        "lat": 60.748407102025006,
        "lon": -82.89342349861015,
        "alt_km": 36085.25719651349,
        "timestamp": "2025-12-22T23:36:19.408766+00:00",
        "meta_object_name": "TJS-21",
        "meta_object_id": "2025-269A",
        "meta_epoch": "2025-12-18T16:58:10.473888",
        "meta_mean_motion": 2.00580748,
        "meta_eccentricity": 0.6806869,
        "meta_inclination": 63.2733,
        "meta_ra_of_asc_node": 161.7218,
        "meta_arg_of_pericenter": 269.7428,
        "meta_mean_anomaly": 18.6663,
        "meta_ephemeris_type": 0,
        "meta_classification_type": "U",
        "meta_norad_cat_id": 66586,
        "meta_element_set_no": 999,
        "meta_rev_at_epoch": 55,
        "meta_bstar": -0.059507049,
        "meta_mean_motion_dot": 1.084e-05,
        "meta_mean_motion_ddot": 0,
        "tle_line1": "1 66586U 25269A   25352.70706567  .00001084  00000+0 -59507-1 0  9990",
        "tle_line2": "2 66586  63.2733 161.7218 6806869 269.7428  18.6663  2.00580748   558"
      },
      "geometry": {
        "type": "Point",
        "coordinates": [
          -82.89342349861015,
          60.748407102025006
        ]
      }
    },
    {
      "type": "Feature",
      "properties": {
        "norad_id": 66588,
        "name": "STARLINK-36076",
        "group": "last-30-days",
        "lat": 11.689025587876486,
        "lon": 146.58256273687127,
        "alt_km": 441.88046102454155,
        "timestamp": "2025-12-22T23:36:19.408779+00:00",
        "meta_object_name": "STARLINK-36076",
        "meta_object_id": "2025-270A",
        "meta_epoch": "2025-12-22T09:31:42.013056",
        "meta_mean_motion": 15.40739051,
        "meta_eccentricity": 0.00015719,
        "meta_inclination": 42.9975,
        "meta_ra_of_asc_node": 137.135,
        "meta_arg_of_pericenter": 284.4298,
        "meta_mean_anomaly": 75.6384,
        "meta_ephemeris_type": 0,
        "meta_classification_type": "U",
        "meta_norad_cat_id": 66588,
        "meta_element_set_no": 999,
        "meta_rev_at_epoch": 583,
        "meta_bstar": 0.0010811349,
        "meta_mean_motion_dot": 0.00045185,
        "meta_mean_motion_ddot": 0,
        "tle_line1": "1 66588U 25270A   25356.39701404  .00045185  00000+0  10811-2 0  9993",
        "tle_line2": "2 66588  42.9975 137.1350 0001571 284.4298  75.6384 15.40739051  5836"
      },
      "geometry": {
        "type": "Point",
        "coordinates": [
          146.58256273687127,
          11.689025587876486
        ]
      }
    },
    {
      "type": "Feature",
      "properties": {
        "norad_id": 66589,
        "name": "STARLINK-35447",
        "group": "last-30-days",
        "lat": 37.49018144955192,
        "lon": -101.88776301499364,
        "alt_km": 438.92924005164787,
        "timestamp": "2025-12-22T23:36:19.408789+00:00",
        "meta_object_name": "STARLINK-35447",
        "meta_object_id": "2025-270B",
        "meta_epoch": "2025-12-22T13:45:57.028608",
        "meta_mean_motion": 15.40702177,
        "meta_eccentricity": 0.00014309,
        "meta_inclination": 43.0005,
        "meta_ra_of_asc_node": 135.8752,
        "meta_arg_of_pericenter": 269.8886,
        "meta_mean_anomaly": 90.1807,
        "meta_ephemeris_type": 0,
        "meta_classification_type": "U",
        "meta_norad_cat_id": 66589,
        "meta_element_set_no": 999,
        "meta_rev_at_epoch": 597,
        "meta_bstar": 0.00025552084,
        "meta_mean_motion_dot": 0.00010385,
        "meta_mean_motion_ddot": 0,
        "tle_line1": "1 66589U 25270B   25356.57357672  .00010385  00000+0  25552-3 0  9991",
        "tle_line2": "2 66589  43.0005 135.8752 0001430 269.8886  90.1807 15.40702177  5974"
      },
      "geometry": {
        "type": "Point",
        "coordinates": [
          -101.88776301499364,
          37.49018144955192
        ]
      }
    }
  ]
}